{
  "norad_id": 52456,
  "name": "STARLINK-3896",
  "history": [
    {
      "epoch": "2026-04-12T21:04:22.423584Z",
      "apogee_km": 540.6443714460156,
      "perigee_km": 538.834654950163,
      "latitude_deg": 7.6061392547346285e-06,
      "longitude_deg": 118.47421675932225,
      "height_km": 540.6032479475821,
      "semi_major_axis_km": 6917.876513198089,
      "eccentricity": 0.0001308,
      "inclination_deg": 53.2166,
      "raan_deg": 275.6445,
      "arg_perigee_deg": 87.9759,
      "mean_anomaly_deg": 272.1383,
      "mean_motion_rev_day": 15.08841268
    },
    {
      "epoch": "2026-04-14T17:35:10.805280Z",
      "apogee_km": 540.6836227210579,
      "perigee_km": 538.8282438363531,
      "latitude_deg": 1.9228246748331545e-05,
      "longitude_deg": 160.6176346381732,
      "height_km": 540.6659785134808,
      "semi_major_axis_km": 6917.892933278706,
      "eccentricity": 0.0001341,
      "inclination_deg": 53.2158,
      "raan_deg": 267.3176,
      "arg_perigee_deg": 90.8948,
      "mean_anomaly_deg": 269.2198,
      "mean_motion_rev_day": 15.08835896
    },
    {
      "epoch": "2026-04-15T17:25:57.903168Z",
      "apogee_km": 540.5845256612401,
      "perigee_km": 538.9269985554392,
      "latitude_deg": 5.1677115968681727e-05,
      "longitude_deg": 157.4819819138012,
      "height_km": 540.6341214818541,
      "semi_major_axis_km": 6917.892762108339,
      "eccentricity": 0.0001198,
      "inclination_deg": 53.2161,
      "raan_deg": 262.8575,
      "arg_perigee_deg": 88.7954,
      "mean_anomaly_deg": 271.3176,
      "mean_motion_rev_day": 15.08835952
    },
    {
      "epoch": "2026-04-16T17:16:44.849856Z",
      "apogee_km": 540.5783716492306,
      "perigee_km": 538.9166957842326,
      "latitude_deg": -3.815434137249436e-05,
      "longitude_deg": 154.34637004515682,
      "height_km": 540.5915944559787,
      "semi_major_axis_km": 6917.884533716731,
      "eccentricity": 0.0001201,
      "inclination_deg": 53.2174,
      "raan_deg": 258.3969,
      "arg_perigee_deg": 86.4204,
      "mean_anomaly_deg": 273.6925,
      "mean_motion_rev_day": 15.08838644
    },
    {
      "epoch": "2026-04-17T21:53:41.481888Z",
      "apogee_km": 540.569150564118,
      "perigee_km": 538.9121805056684,
      "latitude_deg": 1.1526668021533575e-05,
      "longitude_deg": 78.58353545103839,
      "height_km": 540.4053164741383,
      "semi_major_axis_km": 6917.877665534893,
      "eccentricity": 0.00011976,
      "inclination_deg": 53.2185,
      "raan_deg": 253.0452,
      "arg_perigee_deg": 73.7767,
      "mean_anomaly_deg": 286.3357,
      "mean_motion_rev_day": 15.08840891
    },
    {
      "epoch": "2026-04-18T13:47:32.917920Z",
      "apogee_km": 540.6140917524272,
      "perigee_km": 538.8652525297093,
      "latitude_deg": -2.5327111617848824e-05,
      "longitude_deg": -163.50850075339642,
      "height_km": 540.5534696780828,
      "semi_major_axis_km": 6917.8766721410675,
      "eccentricity": 0.0001264,
      "inclination_deg": 53.2173,
      "raan_deg": 250.0704,
      "arg_perigee_deg": 84.6162,
      "mean_anomaly_deg": 275.4974,
      "mean_motion_rev_day": 15.08841216
    },
    {
      "epoch": "2026-04-19T15:13:43.035168Z",
      "apogee_km": 540.443317647123,
      "perigee_km": 539.0459055615793,
      "latitude_deg": 2.1544383556383444e-05,
      "longitude_deg": 169.14735279398982,
      "height_km": 540.6096775986626,
      "semi_major_axis_km": 6917.881611604351,
      "eccentricity": 0.000101,
      "inclination_deg": 53.2163,
      "raan_deg": 245.313,
      "arg_perigee_deg": 87.4572,
      "mean_anomaly_deg": 272.6536,
      "mean_motion_rev_day": 15.088396
    },
    {
      "epoch": "2026-04-20T15:04:30.307584Z",
      "apogee_km": 540.7191920837286,
      "perigee_km": 538.7619861562143,
      "latitude_deg": -5.7329176564097415e-06,
      "longitude_deg": 166.0104227630481,
      "height_km": 540.350323779253,
      "semi_major_axis_km": 6917.877589119971,
      "eccentricity": 0.00014146,
      "inclination_deg": 53.2159,
      "raan_deg": 240.8524,
      "arg_perigee_deg": 73.0176,
      "mean_anomaly_deg": 287.0971,
      "mean_motion_rev_day": 15.08840916
    },
    {
      "epoch": "2026-04-21T13:19:53.723424Z",
      "apogee_km": 540.6124115794255,
      "perigee_km": 538.8525055891605,
      "latitude_deg": 1.434926601832661e-05,
      "longitude_deg": -172.9142727383608,
      "height_km": 540.6037853569186,
      "semi_major_axis_km": 6917.869458584292,
      "eccentricity": 0.0001272,
      "inclination_deg": 53.2167,
      "raan_deg": 236.6893,
      "arg_perigee_deg": 88.4093,
      "mean_anomaly_deg": 271.7045,
      "mean_motion_rev_day": 15.08843576
    },
    {
      "epoch": "2026-04-22T14:46:04.778112Z",
      "apogee_km": 540.6666625906628,
      "perigee_km": 538.86247386167,
      "latitude_deg": 4.037014602315966e-05,
      "longitude_deg": 159.73674675351043,
      "height_km": 540.6860626096585,
      "semi_major_axis_km": 6917.901568226166,
      "eccentricity": 0.0001304,
      "inclination_deg": 53.2172,
      "raan_deg": 231.931,
      "arg_perigee_deg": 91.6351,
      "mean_anomaly_deg": 268.4791,
      "mean_motion_rev_day": 15.08833071
    },
    {
      "epoch": "2026-04-23T11:26:05.318016Z",
      "apogee_km": 540.8685946122023,
      "perigee_km": 538.5854227747723,
      "latitude_deg": 1.1968659339350276e-05,
      "longitude_deg": -154.98008174568483,
      "height_km": 540.698971234725,
      "semi_major_axis_km": 6917.8640086934865,
      "eccentricity": 0.00016502,
      "inclination_deg": 53.2192,
      "raan_deg": 228.0652,
      "arg_perigee_deg": 93.8408,
      "mean_anomaly_deg": 266.2773,
      "mean_motion_rev_day": 15.08845359
    },
    {
      "epoch": "2026-04-24T17:38:25.171584Z",
      "apogee_km": 540.5636842447539,
      "perigee_km": 538.9462810992045,
      "latitude_deg": -7.453951939395052e-06,
      "longitude_deg": 105.04808260381331,
      "height_km": 540.6505135455623,
      "semi_major_axis_km": 6917.891982671978,
      "eccentricity": 0.0001169,
      "inclination_deg": 53.2178,
      "raan_deg": 222.4166,
      "arg_perigee_deg": 89.966,
      "mean_anomaly_deg": 270.1466,
      "mean_motion_rev_day": 15.08836207
    },
    {
      "epoch": "2026-04-25T19:04:34.385088Z",
      "apogee_km": 540.4662913780512,
      "perigee_km": 538.9485163158461,
      "latitude_deg": -3.436371627918278e-05,
      "longitude_deg": 77.70635771842417,
      "height_km": 540.543386047095,
      "semi_major_axis_km": 6917.844403846948,
      "eccentricity": 0.0001097,
      "inclination_deg": 53.2168,
      "raan_deg": 217.6579,
      "arg_perigee_deg": 85.4626,
      "mean_anomaly_deg": 274.6491,
      "mean_motion_rev_day": 15.08851773
    },
    {
      "epoch": "2026-04-26T15:44:36.334176Z",
      "apogee_km": 540.5639636969845,
      "perigee_km": 538.9242875125938,
      "latitude_deg": 1.1047704380650766e-05,
      "longitude_deg": 122.98349855989372,
      "height_km": 540.6160087631403,
      "semi_major_axis_km": 6917.881125604788,
      "eccentricity": 0.00011851,
      "inclination_deg": 53.2169,
      "raan_deg": 213.7919,
      "arg_perigee_deg": 88.3218,
      "mean_anomaly_deg": 271.791,
      "mean_motion_rev_day": 15.08839759
    },
    {
      "epoch": "2026-04-26T23:41:31.963200Z",
      "apogee_km": 540.5821505166132,
      "perigee_km": 538.8984775359249,
      "latitude_deg": 4.461942919378174e-05,
      "longitude_deg": 1.9386910707056348,
      "height_km": 540.6015479244757,
      "semi_major_axis_km": 6917.877314026268,
      "eccentricity": 0.00012169,
      "inclination_deg": 53.217,
      "raan_deg": 212.3053,
      "arg_perigee_deg": 87.6429,
      "mean_anomaly_deg": 272.4703,
      "mean_motion_rev_day": 15.08841006
    },
    {
      "epoch": "2026-04-28T12:15:24.213024Z",
      "apogee_km": 540.7494163834854,
      "perigee_km": 538.7432302197276,
      "latitude_deg": 5.834934930069789e-05,
      "longitude_deg": 165.12984364663188,
      "height_km": 540.6420986511567,
      "semi_major_axis_km": 6917.883323301606,
      "eccentricity": 0.000145,
      "inclination_deg": 53.2164,
      "raan_deg": 205.4658,
      "arg_perigee_deg": 90.0177,
      "mean_anomaly_deg": 270.0982,
      "mean_motion_rev_day": 15.0883904
    },
    {
      "epoch": "2026-04-29T12:06:11.528640Z",
      "apogee_km": 540.6643463534037,
      "perigee_km": 538.8352570830293,
      "latitude_deg": 3.880726823627567e-05,
      "longitude_deg": 161.99424119729963,
      "height_km": 540.6808147335985,
      "semi_major_axis_km": 6917.886801718217,
      "eccentricity": 0.0001322,
      "inclination_deg": 53.2175,
      "raan_deg": 201.0067,
      "arg_perigee_deg": 92.2089,
      "mean_anomaly_deg": 267.9055,
      "mean_motion_rev_day": 15.08837902
    },
    {
      "epoch": "2026-04-30T15:07:44.463072Z",
      "apogee_km": 540.589212124306,
      "perigee_km": 538.8804977761338,
      "latitude_deg": 2.9282686629667198e-05,
      "longitude_deg": 110.44159635918182,
      "height_km": 540.6217530402879,
      "semi_major_axis_km": 6917.87185495022,
      "eccentricity": 0.0001235,
      "inclination_deg": 53.2169,
      "raan_deg": 195.9512,
      "arg_perigee_deg": 89.4015,
      "mean_anomaly_deg": 270.7119,
      "mean_motion_rev_day": 15.08842792
    }
  ]
}